[{"OBJECT_NAME":"RANGE-A","OBJECT_ID":"2018-099R","EPOCH":"2026-03-09T16:56:29.908608","MEAN_MOTION":15.1245864,"ECCENTRICITY":0.00096737,"INCLINATION":97.4107,"RA_OF_ASC_NODE":114.1927,"ARG_OF_PERICENTER":340.4473,"MEAN_ANOMALY":19.6386,"EPHEMERIS_TYPE":0,"CLASSIFICATION_TYPE":"U","NORAD_CAT_ID":43773,"ELEMENT_SET_NO":999,"REV_AT_EPOCH":39745,"BSTAR":0.00032165687,"MEAN_MOTION_DOT":5.536e-5,"MEAN_MOTION_DDOT":0},{"OBJECT_NAME":"STARLINK-4002","OBJECT_ID":"2022-052Q","EPOCH":"2026-03-08T23:29:18.654432","MEAN_MOTION":15.08837626,"ECCENTRICITY":0.00012561,"INCLINATION":53.2165,"RA_OF_ASC_NODE":282.3132,"ARG_OF_PERICENTER":90.0327,"MEAN_ANOMALY":270.081,"EPHEMERIS_TYPE":0,"CLASSIFICATION_TYPE":"U","NORAD_CAT_ID":52612,"ELEMENT_SET_NO":999,"REV_AT_EPOCH":21075,"BSTAR":4.0573085e-5,"MEAN_MOTION_DOT":3.58e-6,"MEAN_MOTION_DDOT":0}]
