RANGE-A                 
1 43773U 18099R   26068.70590171  .00005536  00000+0  32166-3 0  9992
2 43773  97.4107 114.1927 0009674 340.4473  19.6386 15.12458640397457
STARLINK-4002           
1 52612U 22052Q   26067.97868813  .00000358  00000+0  40573-4 0  9996
2 52612  53.2165 282.3132 0001256  90.0327 270.0810 15.08837626210755
